STARLINK-4734           
1 53790U 22111T   26152.58794594 -.00000048  00000+0  15070-4 0  9997
2 53790  53.1893 257.3516 0001361  84.8980 275.2167 15.08829794206362
STARLINK-4739           
1 53792U 22111V   26153.22926168  .00002131  00000+0  15187-3 0  9997
2 53792  53.1870 254.9410 0001165 102.2903 257.8220 15.08851147206449
STARLINK-4728           
1 53793U 22111W   26152.51433770 -.00000437  00000+0 -93851-5 0  9996
2 53793  53.1898 257.6054 0000822 114.2965 245.8112 15.08843059206343
STARLINK-4730           
1 53794U 22111X   26152.58521642  .00000783  00000+0  67287-4 0  9995
2 53794  53.1892 257.3307 0001665  58.8236 301.2918 15.08830694206359
STARLINK-4742           
1 53795U 22111Y   26152.56952845  .00000962  00000+0  78514-4 0  9991
2 53795  53.1908 257.2361 0001175 104.1674 255.9449 15.08836014206350
STARLINK-4723           
1 53797U 22111AA  26152.55846592  .00000593  00000+0  55337-4 0  9991
2 53797  53.1895 257.1705 0001373  55.7446 304.3676 15.08834257206343
STARLINK-4712           
1 53798U 22111AB  26152.56214232  .00001537  00000+0  11468-3 0  9998
2 53798  53.1902 257.1904 0001239  73.4354 286.6774 15.08826990206346
STARLINK-4710           
1 53799U 22111AC  26152.53832073  .00001067  00000+0  85140-4 0  9992
2 53799  53.1882 247.7656 0001227  77.2427 282.8702 15.08837459206478
STARLINK-4720           
1 53800U 22111AD  26152.42481010  .00039068  00000+0  50358-3 0  9998
2 53800  53.2064 196.1293 0004111  44.1273 316.0068 15.58648056207198
STARLINK-4715           
1 53801U 22111AE  26152.57412878  .00004728  00000+0  31495-3 0  9997
2 53801  53.1897 247.2801 0001323 114.9921 245.1208 15.08841449206488
STARLINK-4726           
1 53802U 22111AF  26152.58518285 -.00000052  00000+0  14869-4 0  9992
2 53802  53.1904 247.3501 0001742  53.2896 306.8256 15.08835719206488
STARLINK-4727           
1 53803U 22111AG  26152.53321297  .00000573  00000+0  54047-4 0  9992
2 53803  53.1889 232.7600 0001455  23.6529 336.4529 15.08853426206683
STARLINK-4729           
1 53804U 22111AH  26152.51114700  .00000652  00000+0  59046-4 0  9992
2 53804  53.1888 242.6023 0001457  66.3280 293.7864 15.08838421206542
STARLINK-4763           
1 53805U 22111AJ  26152.54155002 -.00000516  00000+0 -14302-4 0  9993
2 53805  53.1894 232.8094 0001217  92.7553 267.3578 15.08840806206683
STARLINK-4768           
1 53806U 22111AK  26152.44855860  .00000045  00000+0  20921-4 0  9991
2 53806  53.1892 232.9413 0001274  69.3234 290.7895 15.08831467206671
BLUEWALKER-3            
1 53807U 22111AL  26153.17038448  .00006400  00000+0  17847-3 0  9991
2 53807  53.2287 104.4601 0007201 119.0807 241.0920 15.38070627207897
ZHONGXING-1E            
1 53813U 22112A   26153.15718527 -.00000137  00000+0  00000+0 0  9991
2 53813   0.0282  84.9971 0000574 283.2082  20.4363  1.00271939 13692
STRIX-1                 
1 53815U 22113A   26153.29939250  .00027111  00000+0  69993-3 0  9997
2 53815  97.4500 215.0653 0002264 284.0788  76.0206 15.39117271205153
STARLINK-4738           
1 53819U 22114B   26152.68454216  .00000827  00000+0  70060-4 0  9991
2 53819  53.1879 286.9088 0000851  85.6575 274.4514 15.08835182205513
STARLINK-4758           
1 53820U 22114C   26152.65146283  .00000576  00000+0  54298-4 0  9998
2 53820  53.1879 287.4070 0001475  52.3455 307.7671 15.08834302205509
STARLINK-4748           
1 53823U 22114F   26152.55805174 -.00002084  00000+0 -11284-3 0  9996
2 53823  53.1895 242.5898 0001399  83.5231 276.5920 15.08850121206129
STARLINK-4757           
1 53824U 22114G   26152.64032321  .00000599  00000+0  55733-4 0  9998
2 53824  53.1890 286.6424 0001353  75.4521 284.6621 15.08838717205428
STARLINK-4751           
1 53825U 22114H   26152.64409303  .00001461  00000+0  10984-3 0  9994
2 53825  53.1891 287.3611 0001332  77.7239 282.3902 15.08837568205503
STARLINK-4756           
1 53826U 22114J   26152.69190914  .00000589  00000+0  55069-4 0  9999
2 53826  53.1888 286.9501 0001072  95.9402 264.1712 15.08836034205513
STARLINK-4764           
1 53827U 22114K   26152.63672493  .00000250  00000+0  33811-4 0  9997
2 53827  53.1883 287.3143 0001597  81.3512 278.7661 15.08840212205505
STARLINK-4760           
1 53828U 22114L   26152.68822791  .00001231  00000+0  95476-4 0  9996
2 53828  53.1894 286.9267 0002235  88.1483 271.9765 15.08832706205512
STARLINK-4759           
1 53829U 22114M   26152.63304270 -.00000224  00000+0  39861-5 0  9998
2 53829  53.1887 287.2932 0001189  90.1853 269.9275 15.08840831205509
STARLINK-4761           
1 53830U 22114N   26152.68085215  .00001175  00000+0  91882-4 0  9995
2 53830  53.1893 286.8823 0001351  68.7987 291.3149 15.08841698205514
STARLINK-4649           
1 53831U 22114P   26152.69559398  .00000382  00000+0  42116-4 0  9990
2 53831  53.1879 286.9727 0001164  86.3205 273.7920 15.08837890205514
STARLINK-4747           
1 53832U 22114Q   26152.60724736  .00000308  00000+0  37478-4 0  9995
2 53832  53.1875 287.1313 0001403  96.2651 263.8500 15.08833361205508
