OBJECT_NAME,OBJECT_ID,EPOCH,MEAN_MOTION,ECCENTRICITY,INCLINATION,RA_OF_ASC_NODE,ARG_OF_PERICENTER,MEAN_ANOMALY,EPHEMERIS_TYPE,CLASSIFICATION_TYPE,NORAD_CAT_ID,ELEMENT_SET_NO,REV_AT_EPOCH,BSTAR,MEAN_MOTION_DOT,MEAN_MOTION_DDOT
STARLINK-4734,2022-111T,2026-06-01T14:06:38.529216,15.08829794,.00013616,53.1893,257.3516,84.8980,275.2167,0,U,53790,999,20636,.15069733E-4,-.48E-6,0
STARLINK-4739,2022-111V,2026-06-02T05:30:08.209152,15.08851147,.00011658,53.1870,254.9410,102.2903,257.8220,0,U,53792,999,20644,.15187198E-3,.2131E-4,0
STARLINK-4728,2022-111W,2026-06-01T12:20:38.777280,15.08843059,.00008222,53.1898,257.6054,114.2965,245.8112,0,U,53793,999,20634,-.9385107E-5,-.437E-5,0
STARLINK-4730,2022-111X,2026-06-01T14:02:42.698688,15.08830694,.00016658,53.1892,257.3307,58.8236,301.2918,0,U,53794,999,20635,.67286686E-4,.783E-5,0
STARLINK-4742,2022-111Y,2026-06-01T13:40:07.258080,15.08836014,.00011759,53.1908,257.2361,104.1674,255.9449,0,U,53795,999,20635,.78513924E-4,.962E-5,0
STARLINK-4723,2022-111AA,2026-06-01T13:24:11.455488,15.08834257,.00013737,53.1895,257.1705,55.7446,304.3676,0,U,53797,999,20634,.55336717E-4,.593E-5,0
STARLINK-4712,2022-111AB,2026-06-01T13:29:29.096448,15.08826990,.00012392,53.1902,257.1904,73.4354,286.6774,0,U,53798,999,20634,.11467913E-3,.1537E-4,0
STARLINK-4710,2022-111AC,2026-06-01T12:55:10.911072,15.08837459,.00012273,53.1882,247.7656,77.2427,282.8702,0,U,53799,999,20647,.85140017E-4,.1067E-4,0
STARLINK-4720,2022-111AD,2026-06-01T10:11:43.592640,15.58648056,.0004111,53.2064,196.1293,44.1273,316.0068,0,U,53800,999,20719,.50358482E-3,.39068E-3,0
STARLINK-4715,2022-111AE,2026-06-01T13:46:44.726592,15.08841449,.00013233,53.1897,247.2801,114.9921,245.1208,0,U,53801,999,20648,.31494847E-3,.4728E-4,0
STARLINK-4726,2022-111AF,2026-06-01T14:02:39.798240,15.08835719,.00017428,53.1904,247.3501,53.2896,306.8256,0,U,53802,999,20648,.14868506E-4,-.52E-6,0
STARLINK-4727,2022-111AG,2026-06-01T12:47:49.600608,15.08853426,.00014554,53.1889,232.7600,23.6529,336.4529,0,U,53803,999,20668,.5404653E-4,.573E-5,0
STARLINK-4729,2022-111AH,2026-06-01T12:16:03.100800,15.08838421,.00014571,53.1888,242.6023,66.3280,293.7864,0,U,53804,999,20654,.59046362E-4,.652E-5,0
STARLINK-4763,2022-111AJ,2026-06-01T12:59:49.921728,15.08840806,.0001217,53.1894,232.8094,92.7553,267.3578,0,U,53805,999,20668,-.14301676E-4,-.516E-5,0
STARLINK-4768,2022-111AK,2026-06-01T10:45:55.463040,15.08831467,.00012741,53.1892,232.9413,69.3234,290.7895,0,U,53806,999,20667,.209212E-4,.45E-6,0
BLUEWALKER-3,2022-111AL,2026-06-02T04:05:21.219072,15.38070627,.00072017,53.2287,104.4601,119.0807,241.0920,0,U,53807,999,20789,.17847086E-3,.64E-4,0
ZHONGXING-1E,2022-112A,2026-06-02T03:46:20.807328,1.00271939,.00005743,0.0282,84.9971,283.2082,20.4363,0,U,53813,999,1369,0,-.137E-5,0
STRIX-1,2022-113A,2026-06-02T07:11:07.512000,15.39117271,.00022643,97.4500,215.0653,284.0788,76.0206,0,U,53815,999,20515,.69993265E-3,.27111E-3,0
STARLINK-4738,2022-114B,2026-06-01T16:25:44.442624,15.08835182,.00008519,53.1879,286.9088,85.6575,274.4514,0,U,53819,999,20551,.70059946E-4,.827E-5,0
STARLINK-4758,2022-114C,2026-06-01T15:38:06.388512,15.08834302,.00014758,53.1879,287.4070,52.3455,307.7671,0,U,53820,999,20550,.54297636E-4,.576E-5,0
STARLINK-4748,2022-114F,2026-06-01T13:23:35.670336,15.08850121,.00013993,53.1895,242.5898,83.5231,276.5920,0,U,53823,999,20612,-.11284485E-3,-.2084E-4,0
STARLINK-4757,2022-114G,2026-06-01T15:22:03.925344,15.08838717,.0001353,53.1890,286.6424,75.4521,284.6621,0,U,53824,999,20542,.55733074E-4,.599E-5,0
STARLINK-4751,2022-114H,2026-06-01T15:27:29.637792,15.08837568,.00013323,53.1891,287.3611,77.7239,282.3902,0,U,53825,999,20550,.10984103E-3,.1461E-4,0
STARLINK-4756,2022-114J,2026-06-01T16:36:20.949696,15.08836034,.00010722,53.1888,286.9501,95.9402,264.1712,0,U,53826,999,20551,.55069099E-4,.589E-5,0
STARLINK-4764,2022-114K,2026-06-01T15:16:53.033952,15.08840212,.00015977,53.1883,287.3143,81.3512,278.7661,0,U,53827,999,20550,.33811107E-4,.25E-5,0
STARLINK-4760,2022-114L,2026-06-01T16:31:02.891424,15.08832706,.00022357,53.1894,286.9267,88.1483,271.9765,0,U,53828,999,20551,.95475559E-4,.1231E-4,0
STARLINK-4759,2022-114M,2026-06-01T15:11:34.889280,15.08840831,.00011896,53.1887,287.2932,90.1853,269.9275,0,U,53829,999,20550,.3986126E-5,-.224E-5,0
STARLINK-4761,2022-114N,2026-06-01T16:20:25.625760,15.08841698,.00013511,53.1893,286.8823,68.7987,291.3149,0,U,53830,999,20551,.91882073E-4,.1175E-4,0
STARLINK-4649,2022-114P,2026-06-01T16:41:39.319872,15.08837890,.0001164,53.1879,286.9727,86.3205,273.7920,0,U,53831,999,20551,.42116458E-4,.382E-5,0
STARLINK-4747,2022-114Q,2026-06-01T14:34:26.171904,15.08833361,.00014031,53.1875,287.1313,96.2651,263.8500,0,U,53832,999,20550,.37478417E-4,.308E-5,0
